start=new Date('2023-06-04T00:00:00.000Z').valueOf();
sats=[{"RCS_SIZE":"LARGE","MEAN_ELEMENT_THEORY":"SGP4","CLASSIFICATION_TYPE":"U","ARG_OF_PERICENTER":"104.9499","APOAPSIS":"540.410","EPHEMERIS_TYPE":"0","OBJECT_ID":"2021-104AN","BSTAR":"0.00001775500000","MEAN_ANOMALY":"255.1599","NORAD_CAT_ID":"49444","GP_ID":"233142959","DECAY_DATE":null,"MEAN_MOTION":"15.08838843","REF_FRAME":"TEME","PERIOD":"95.438","OBJECT_TYPE":"PAYLOAD","FILE":"3924324","SEMIMAJOR_AXIS":"6917.884","RA_OF_ASC_NODE":"62.1693","OBJECT_NAME":"STARLINK-3126","CENTER_NAME":"EARTH","MEAN_MOTION_DDOT":"0.0000000000000","TIME_SYSTEM":"UTC","LAUNCH_DATE":"2021-11-13","SITE":"AFETR","REV_AT_EPOCH":"8647","MEAN_MOTION_DOT":"-0.00000005","EPOCH":"2023-06-03T22:01:51.451968","PERIAPSIS":"539.088","TLE_LINE1":"1 49444U 21104AN  23154.91795662 -.00000005  00000-0  17755-4 0  9998","TLE_LINE2":"2 49444  53.2178  62.1693 0000956 104.9499 255.1599 15.08838843 86475","ELEMENT_SET_NO":"999","COUNTRY_CODE":"US","INCLINATION":"53.2178","ECCENTRICITY":"0.00009560"},{"RCS_SIZE":"LARGE","MEAN_ELEMENT_THEORY":"SGP4","CLASSIFICATION_TYPE":"U","ARG_OF_PERICENTER":"89.1301","APOAPSIS":"540.578","BSTAR":"0.00001679000000","OBJECT_ID":"2021-104AP","EPHEMERIS_TYPE":"0","NORAD_CAT_ID":"49445","MEAN_ANOMALY":"270.9829","GP_ID":"233142709","REF_FRAME":"TEME","PERIOD":"95.438","MEAN_MOTION":"15.08839206","DECAY_DATE":null,"FILE":"3924324","OBJECT_TYPE":"PAYLOAD","SEMIMAJOR_AXIS":"6917.883","OBJECT_NAME":"STARLINK-3122","RA_OF_ASC_NODE":"72.1002","CENTER_NAME":"EARTH","MEAN_MOTION_DDOT":"0.0000000000000","LAUNCH_DATE":"2021-11-13","TIME_SYSTEM":"UTC","REV_AT_EPOCH":"8633","SITE":"AFETR","MEAN_MOTION_DOT":"-0.00000021","TLE_LINE1":"1 49445U 21104AP  23154.93079680 -.00000021  00000-0  16790-4 0  9992","TLE_LINE2":"2 49445  53.2171  72.1002 0001200  89.1301 270.9829 15.08839206 86333","EPOCH":"2023-06-03T22:20:20.843520","PERIAPSIS":"538.918","COUNTRY_CODE":"US","ELEMENT_SET_NO":"999","ECCENTRICITY":"0.00012000","INCLINATION":"53.2171"},{"PERIAPSIS":"538.975","EPOCH":"2023-06-03T21:55:10.964640","TLE_LINE1":"1 49446U 21104AQ  23154.91332135  .00000380  00000-0  41976-4 0  9999","TLE_LINE2":"2 49446  53.2172  62.1795 0001134  98.1321 261.9800 15.08835336 86475","ELEMENT_SET_NO":"999","COUNTRY_CODE":"US","INCLINATION":"53.2172","ECCENTRICITY":"0.00011340","CENTER_NAME":"EARTH","MEAN_MOTION_DDOT":"0.0000000000000","TIME_SYSTEM":"UTC","LAUNCH_DATE":"2021-11-13","SITE":"AFETR","REV_AT_EPOCH":"8647","MEAN_MOTION_DOT":"0.00000380","SEMIMAJOR_AXIS":"6917.895","RA_OF_ASC_NODE":"62.1795","OBJECT_NAME":"STARLINK-3099","GP_ID":"233141457","DECAY_DATE":null,"MEAN_MOTION":"15.08835336","REF_FRAME":"TEME","PERIOD":"95.438","OBJECT_TYPE":"PAYLOAD","FILE":"3924324","APOAPSIS":"540.544","EPHEMERIS_TYPE":"0","OBJECT_ID":"2021-104AQ","BSTAR":"0.00004197600000","MEAN_ANOMALY":"261.9800","NORAD_CAT_ID":"49446","CLASSIFICATION_TYPE":"U","ARG_OF_PERICENTER":"98.1321","RCS_SIZE":"LARGE","MEAN_ELEMENT_THEORY":"SGP4"},{"OBJECT_NAME":"STARLINK-3115","RA_OF_ASC_NODE":"72.1362","SEMIMAJOR_AXIS":"6917.891","LAUNCH_DATE":"2021-11-13","TIME_SYSTEM":"UTC","CENTER_NAME":"EARTH","MEAN_MOTION_DDOT":"0.0000000000000","MEAN_MOTION_DOT":"-0.00000072","SITE":"AFETR","REV_AT_EPOCH":"8633","TLE_LINE1":"1 49447U 21104AR  23154.92343715 -.00000072  00000-0  13585-4 0  9991","TLE_LINE2":"2 49447  53.2176  72.1362 0001467  93.2023 266.9137 15.08836418 86330","EPOCH":"2023-06-03T22:09:44.969760","PERIAPSIS":"538.741","ECCENTRICITY":"0.00014670","INCLINATION":"53.2176","COUNTRY_CODE":"US","ELEMENT_SET_NO":"999","RCS_SIZE":"LARGE","MEAN_ELEMENT_THEORY":"SGP4","CLASSIFICATION_TYPE":"U","ARG_OF_PERICENTER":"93.2023","APOAPSIS":"540.771","NORAD_CAT_ID":"49447","MEAN_ANOMALY":"266.9137","BSTAR":"0.00001358500000","OBJECT_ID":"2021-104AR","EPHEMERIS_TYPE":"0","PERIOD":"95.438","REF_FRAME":"TEME","DECAY_DATE":null,"MEAN_MOTION":"15.08836418","GP_ID":"233142208","OBJECT_TYPE":"PAYLOAD","FILE":"3924324"},{"CLASSIFICATION_TYPE":"U","ARG_OF_PERICENTER":"91.3524","RCS_SIZE":"LARGE","MEAN_ELEMENT_THEORY":"SGP4","GP_ID":"233142459","REF_FRAME":"TEME","PERIOD":"95.438","MEAN_MOTION":"15.08834668","DECAY_DATE":null,"FILE":"3924324","OBJECT_TYPE":"PAYLOAD","APOAPSIS":"540.559","BSTAR":"0.00001791500000","OBJECT_ID":"2021-104AS","EPHEMERIS_TYPE":"0","NORAD_CAT_ID":"49448","MEAN_ANOMALY":"268.7600","SEMIMAJOR_AXIS":"6917.897","OBJECT_NAME":"STARLINK-3097","RA_OF_ASC_NODE":"72.1155","TLE_LINE2":"2 49448  53.2174  72.1155 0001153  91.3524 268.7600 15.08834668 86336","TLE_LINE1":"1 49448U 21104AS  23154.93912275 -.00000003  00000-0  17915-4 0  9991","PERIAPSIS":"538.964","EPOCH":"2023-06-03T22:32:20.205600","COUNTRY_CODE":"US","ELEMENT_SET_NO":"999","ECCENTRICITY":"0.00011530","INCLINATION":"53.2174","CENTER_NAME":"EARTH","MEAN_MOTION_DDOT":"0.0000000000000","TIME_SYSTEM":"UTC","LAUNCH_DATE":"2021-11-13","REV_AT_EPOCH":"8633","SITE":"AFETR","MEAN_MOTION_DOT":"-0.00000003"},{"MEAN_ELEMENT_THEORY":"SGP4","RCS_SIZE":"LARGE","ARG_OF_PERICENTER":"90.7927","CLASSIFICATION_TYPE":"U","EPHEMERIS_TYPE":"0","BSTAR":"0.00009138100000","OBJECT_ID":"2021-104AT","MEAN_ANOMALY":"269.3245","NORAD_CAT_ID":"49449","APOAPSIS":"540.824","FILE":"3924324","OBJECT_TYPE":"PAYLOAD","GP_ID":"233143210","MEAN_MOTION":"15.08841674","DECAY_DATE":null,"REF_FRAME":"TEME","PERIOD":"95.437","SEMIMAJOR_AXIS":"6917.875","RA_OF_ASC_NODE":"72.1538","OBJECT_NAME":"STARLINK-3137","REV_AT_EPOCH":"8633","SITE":"AFETR","MEAN_MOTION_DOT":"0.00001167","MEAN_MOTION_DDOT":"0.0000000000000","CENTER_NAME":"EARTH","TIME_SYSTEM":"UTC","LAUNCH_DATE":"2021-11-13","ELEMENT_SET_NO":"999","COUNTRY_CODE":"US","INCLINATION":"53.2173","ECCENTRICITY":"0.00015660","EPOCH":"2023-06-03T22:04:26.687712","PERIAPSIS":"538.657","TLE_LINE2":"2 49449  53.2173  72.1538 0001566  90.7927 269.3245 15.08841674 86336","TLE_LINE1":"1 49449U 21104AT  23154.91975333  .00001167  00000-0  91381-4 0  9994"},{"EPHEMERIS_TYPE":"0","OBJECT_ID":"2021-104AU","BSTAR":"0.00010492000000","MEAN_ANOMALY":"277.1506","NORAD_CAT_ID":"49450","APOAPSIS":"540.561","FILE":"3924324","OBJECT_TYPE":"PAYLOAD","GP_ID":"233141958","DECAY_DATE":null,"MEAN_MOTION":"15.08840718","PERIOD":"95.438","REF_FRAME":"TEME","MEAN_ELEMENT_THEORY":"SGP4","RCS_SIZE":"LARGE","ARG_OF_PERICENTER":"82.9620","CLASSIFICATION_TYPE":"U","REV_AT_EPOCH":"8659","SITE":"AFETR","MEAN_MOTION_DOT":"0.00001382","CENTER_NAME":"EARTH","MEAN_MOTION_DDOT":"0.0000000000000","TIME_SYSTEM":"UTC","LAUNCH_DATE":"2021-11-13","ELEMENT_SET_NO":"999","COUNTRY_CODE":"US","INCLINATION":"53.2156","ECCENTRICITY":"0.00011820","PERIAPSIS":"538.926","EPOCH":"2023-06-03T22:16:25.537440","TLE_LINE1":"1 49450U 21104AU  23154.92807335  .00001382  00000-0  10492-3 0  9995","TLE_LINE2":"2 49450  53.2156  72.1255 0001182  82.9620 277.1506 15.08840718 86595","SEMIMAJOR_AXIS":"6917.878","RA_OF_ASC_NODE":"72.1255","OBJECT_NAME":"STARLINK-3127"},{"FILE":"3924324","OBJECT_TYPE":"PAYLOAD","MEAN_MOTION":"15.08841425","DECAY_DATE":null,"REF_FRAME":"TEME","PERIOD":"95.437","GP_ID":"233141708","MEAN_ANOMALY":"248.6169","NORAD_CAT_ID":"49451","EPHEMERIS_TYPE":"0","OBJECT_ID":"2021-104AV","BSTAR":"-0.00000141840000","APOAPSIS":"540.784","ARG_OF_PERICENTER":"111.4984","CLASSIFICATION_TYPE":"U","MEAN_ELEMENT_THEORY":"SGP4","RCS_SIZE":"LARGE","INCLINATION":"53.2177","ECCENTRICITY":"0.00015070","ELEMENT_SET_NO":"999","COUNTRY_CODE":"US","PERIAPSIS":"538.699","EPOCH":"2023-06-03T21:59:09.014784","TLE_LINE2":"2 49451  53.2177  72.1673 0001507 111.4984 248.6169 15.08841425 86331","TLE_LINE1":"1 49451U 21104AV  23154.91607656 -.00000311  00000-0 -14184-5 0  9996","MEAN_MOTION_DOT":"-0.00000311","REV_AT_EPOCH":"8633","SITE":"AFETR","TIME_SYSTEM":"UTC","LAUNCH_DATE":"2021-11-13","CENTER_NAME":"EARTH","MEAN_MOTION_DDOT":"0.0000000000000","RA_OF_ASC_NODE":"72.1673","OBJECT_NAME":"STARLINK-3125","SEMIMAJOR_AXIS":"6917.876"},{"RA_OF_ASC_NODE":"75.5148","OBJECT_NAME":"STARLINK-3150","SEMIMAJOR_AXIS":"6917.884","LAUNCH_DATE":"2021-11-13","TIME_SYSTEM":"UTC","MEAN_MOTION_DDOT":"0.0000000000000","CENTER_NAME":"EARTH","MEAN_MOTION_DOT":"0.00000105","REV_AT_EPOCH":"8622","SITE":"AFETR","PERIAPSIS":"538.863","EPOCH":"2023-06-03T04:14:01.178592","TLE_LINE2":"2 49452  53.2182  75.5148 0001281 100.5325 259.5812 15.08838847 86227","TLE_LINE1":"1 49452U 21104AW  23154.17640253  .00000105  00000-0  24687-4 0  9992","INCLINATION":"53.2182","ECCENTRICITY":"0.00012810","ELEMENT_SET_NO":"999","COUNTRY_CODE":"US","RCS_SIZE":"LARGE","MEAN_ELEMENT_THEORY":"SGP4","CLASSIFICATION_TYPE":"U","ARG_OF_PERICENTER":"100.5325","APOAPSIS":"540.635","MEAN_ANOMALY":"259.5812","NORAD_CAT_ID":"49452","EPHEMERIS_TYPE":"0","BSTAR":"0.00002468700000","OBJECT_ID":"2021-104AW","MEAN_MOTION":"15.08838847","DECAY_DATE":null,"PERIOD":"95.438","REF_FRAME":"TEME","GP_ID":"233110153","OBJECT_TYPE":"PAYLOAD","FILE":"3924076"},{"FILE":"3924324","OBJECT_TYPE":"PAYLOAD","DECAY_DATE":null,"MEAN_MOTION":"15.08844625","PERIOD":"95.437","REF_FRAME":"TEME","GP_ID":"233142710","MEAN_ANOMALY":"260.1338","NORAD_CAT_ID":"49453","EPHEMERIS_TYPE":"0","OBJECT_ID":"2021-104AX","BSTAR":"0.00007181700000","APOAPSIS":"540.545","ARG_OF_PERICENTER":"99.9787","CLASSIFICATION_TYPE":"U","MEAN_ELEMENT_THEORY":"SGP4","RCS_SIZE":"LARGE","INCLINATION":"53.2184","ECCENTRICITY":"0.00011760","ELEMENT_SET_NO":"999","COUNTRY_CODE":"US","PERIAPSIS":"538.918","EPOCH":"2023-06-03T22:00:32.163552","TLE_LINE2":"2 49453  53.2184  72.2484 0001176  99.9787 260.1338 15.08844625 86337","TLE_LINE1":"1 49453U 21104AX  23154.91703893  .00000855  00000-0  71817-4 0  9994","MEAN_MOTION_DOT":"0.00000855","SITE":"AFETR","REV_AT_EPOCH":"8633","LAUNCH_DATE":"2021-11-13","TIME_SYSTEM":"UTC","CENTER_NAME":"EARTH","MEAN_MOTION_DDOT":"0.0000000000000","RA_OF_ASC_NODE":"72.2484","OBJECT_NAME":"STARLINK-3129","SEMIMAJOR_AXIS":"6917.866"}];
